TDRS 3                  
1 19548U 88091B   26057.84610155 -.00000306  00000+0  00000+0 0  9991
2 19548  12.6852 341.7287 0044225 351.9002  78.3575  1.00261626124288
HST                     
1 20580U 90037B   26061.37345004  .00009122  00000+0  30343-3 0  9994
2 20580  28.4700  89.9045 0001638  52.0942 307.9801 15.29345912772198
TDRS 5                  
1 21639U 91054B   26061.54766797  .00000074  00000+0  00000+0 0  9995
2 21639  14.0843 354.5670 0011089 277.1432 278.2866  1.00265486126648
TDRS 6                  
1 22314U 93003B   26061.53163076 -.00000305  00000+0  00000+0 0  9990
2 22314  14.1806 357.8486 0005606 201.3749 106.4555  1.00279431121331
TDRS 7                  
1 23613U 95035B   26061.61691294 -.00000249  00000+0  00000+0 0  9994
2 23613  13.4211 348.9207 0008125  47.1447  75.4029  1.00276971112188
ISS (ZARYA)             
1 25544U 98067A   26061.54331036  .00009842  00000+0  19033-3 0  9991
2 25544  51.6317 107.6867 0008241 149.4104 210.7366 15.48401384555220
TERRA                   
1 25994U 99068A   26061.80781814  .00000548  00000+0  12082-3 0  9995
2 25994  97.9608 115.5050 0002235 168.5808 303.7174 14.61006057394073
TDRS 8                  
1 26388U 00034A   26061.68720431 -.00000206  00000+0  00000+0 0  9997
2 26388  12.5161  32.2098 0006156 306.8866 153.4916  1.00276827 94111
TIMED                   
1 26998U 01055B   26061.48577831  .00001612  00000+0  15100-3 0  9992
2 26998  74.0660  89.8202 0002929 283.7118  76.3741 14.94995763314878
AQUA                    
1 27424U 02022A   26061.90159334  .00001285  00000+0  26639-3 0  9998
2 27424  98.4162  29.1435 0000685  56.8605 326.0417 14.61956893267745
SORCE                   
1 27651U 03004A   26061.65624907  .00004531  00000+0  34049-3 0  9997
2 27651  39.9904 149.1890 0016843   2.4266 357.6607 15.03033305255864
AURA                    
1 28376U 04026A   26061.84898817  .00001247  00000+0  26327-3 0  9992
2 28376  98.3299  17.5081 0001020  77.7244 282.4070 14.61129129150683
SWIFT                   
1 28485U 04047A   26061.69835141  .00045631  00000+0  55791-3 0  9992
2 28485  20.5530 280.3797 0002913 300.5400  59.4756 15.58589795170171
THEMIS A                
1 30580U 07004A   26060.72148510 -.00000169  00000+0 -44752-2 0  9990
2 30580   6.6915 120.6573 8406936 176.6389 200.6840  0.87847075 40331
THEMIS D                
1 30797U 07004D   26061.73947463 -.00000220  00000+0  00000+0 0  9998
2 30797   6.5819  84.8181 8359377 215.4145 150.0134  0.87836024 40142
THEMIS E                
1 30798U 07004E   26061.74016798 -.00000227  00000+0  00000+0 0  9995
2 30798   4.0993 100.0113 8363324 201.1662 164.6026  0.87837816 64987
FGRST (GLAST)           
1 33053U 08029A   26061.80491028  .00004754  00000+0  18099-3 0  9999
2 33053  25.5810 222.8016 0008579 147.7649 212.3415 15.23265547979592
TDRS 11                 
1 39070U 13004A   26061.69622776  .00000065  00000+0  00000+0 0  9996
2 39070   3.3648  29.3196 0003910 349.7595 217.6565  1.00275964 45623
TDRS 12                 
1 39504U 14004A   26061.72257455 -.00000284  00000+0  00000+0 0  9995
2 39504   3.8742  17.2098 0003987 266.9061  95.6183  1.00270656 43210
GPM-CORE                
1 39574U 14009C   26061.78252946  .00014689  00000+0  31828-3 0  9992
2 39574  64.9741 304.6229 0012444 264.2311  95.7411 15.44569598681379
MMS 1                   
1 40482U 15011A   26061.91668981 -.00002075  00000+0  00000+0 0  9992
2 40482  70.7048 350.2381 8414265 165.1728 259.0083  0.28294458  1323
MMS 2                   
1 40483U 15011B   26061.91668981 -.00002075  00000+0  00000+0 0  9993
2 40483  70.7044 350.2400 8415010 165.1840 258.9690  0.28299808  1322
MMS 3                   
1 40484U 15011C   26061.91668981 -.00002075  00000+0  00000+0 0  9994
2 40484  70.7067 350.2447 8414296 165.1781 258.9779  0.28299777  1321
MMS 4                   
1 40485U 15011D   26061.91668981 -.00002075  00000+0  00000+0 0  9995
2 40485  70.7056 350.2400 8413780 165.1804 258.9861  0.28294451  1328
TDRS 13                 
1 42915U 17047A   26061.72846792 -.00000114  00000+0  00000+0 0  9995
2 42915   3.4294   0.0218 0010050  99.5766 311.6727  1.00272006 31283
NOAA 20 (JPSS-1)        
1 43013U 17073A   26061.77987135  .00000086  00000+0  61486-4 0  9993
2 43013  98.7684   2.2361 0000893 145.9894 214.1340 14.19533889429370
